GLOBALSTAR M001 [-]     
1 25162U 98008A   24075.42863635 -.00000058  00000+0  29983-3 0  9993
2 25162  52.0012 228.4416 0001762  39.5409 337.3468 12.38179160186996
GLOBALSTAR M004 [-]     
1 25163U 98008B   24075.83747873 -.00000046  00000+0  31718-3 0  9990
2 25163  52.0024  12.4223 0003178   2.0811  32.9108 12.63352669203851
GLOBALSTAR M002 [-]     
1 25164U 98008C   24075.04738986 -.00000070  00000+0  11823-3 0  9991
2 25164  52.0027 311.4149 0001926  42.5916 317.5053 11.61498843130782
GLOBALSTAR M003 [-]     
1 25165U 98008D   24074.94534628  .00000042  00000+0  14040-2 0  9998
2 25165  51.9863   0.4712 0008423  88.7126 349.5202 12.11985307177531
GLOBALSTAR M014 [-]     
1 25306U 98023A   24074.88217201 -.00000066  00000+0  21390-3 0  9994
2 25306  51.9812 244.7053 0000692 162.1612  13.0790 11.65465753137605
GLOBALSTAR M006 [-]     
1 25307U 98023B   24074.90701459 -.00000055  00000+0  43269-3 0  9998
2 25307  51.9921 279.9536 0004012  15.9752  91.4347 11.58157603163615
GLOBALSTAR M015 [-]     
1 25308U 98023C   24074.92364865 -.00000123  00000+0 -11356-2 0  9995
2 25308  51.9860 357.3321 0012604 341.1323  95.8951 11.48852512141294
GLOBALSTAR M008 [-]     
1 25309U 98023D   24074.54546177 -.00000073  00000+0  18350-3 0  9997
2 25309  51.9958  90.6360 0002276 285.8209 248.4869 12.36038124181004
